$$SOE
2461295.500000000, A.D. 2026-Sep-12 00:00:00.0000, -2.305348577522190E+08, -1.428803094680237E+08, -6.817972171476260E+07,
2461302.500000000, A.D. 2026-Sep-19 00:00:00.0000, -2.239201738369725E+08, -1.532116221959293E+08, -7.254893609390321E+07,
2461309.500000000, A.D. 2026-Sep-26 00:00:00.0000, -2.168148410931474E+08, -1.632072802756450E+08, -7.675920816521522E+07,
2461316.500000000, A.D. 2026-Oct-03 00:00:00.0000, -2.092403250670679E+08, -1.728498233558230E+08, -8.080339966400348E+07,
2461323.500000000, A.D. 2026-Oct-10 00:00:00.0000, -2.012185118585501E+08, -1.821229282626869E+08, -8.467488091667792E+07,
2461330.500000000, A.D. 2026-Oct-17 00:00:00.0000, -1.927716428460030E+08, -1.910113856271082E+08, -8.836751904629458E+07,
2461337.500000000, A.D. 2026-Oct-24 00:00:00.0000, -1.839222546933946E+08, -1.995010747694071E+08, -9.187566550759089E+07,
2461344.500000000, A.D. 2026-Oct-31 00:00:00.0000, -1.746931243345974E+08, -2.075789373805450E+08, -9.519414316781384E+07,
2461351.500000000, A.D. 2026-Nov-07 00:00:00.0000, -1.651072183649795E+08, -2.152329503496740E+08, -9.831823313825183E+07,
2461358.500000000, A.D. 2026-Nov-14 00:00:00.0000, -1.551876463902650E+08, -2.224520972278821E+08, -1.012436614612508E+08,
2461365.500000000, A.D. 2026-Nov-21 00:00:00.0000, -1.449576198817387E+08, -2.292263379783332E+08, -1.039665855689785E+08,
2461372.500000000, A.D. 2026-Nov-28 00:00:00.0000, -1.344404172638682E+08, -2.355465803131332E+08, -1.064835807883703E+08,
2461379.500000000, A.D. 2026-Dec-05 00:00:00.0000, -1.236593513416658E+08, -2.414046535318403E+08, -1.087916273847931E+08,
2461386.500000000, A.D. 2026-Dec-12 00:00:00.0000, -1.126377386330958E+08, -2.467932819741518E+08, -1.108880979981825E+08,
2461393.500000000, A.D. 2026-Dec-19 00:00:00.0000, -1.013988722264552E+08, -2.517060582689171E+08, -1.127707453749429E+08,
2461400.500000000, A.D. 2026-Dec-26 00:00:00.0000, -8.996599804192032E+07, -2.561374174059557E+08, -1.144376905161180E+08,
2461407.500000000, A.D. 2027-Jan-02 00:00:00.0000, -7.836229396382686E+07, -2.600826119538055E+08, -1.158874113327019E+08,
2461414.500000000, A.D. 2027-Jan-09 00:00:00.0000, -6.661085147499370E+07, -2.635376885136530E+08, -1.171187318575630E+08,
2461421.500000000, A.D. 2027-Jan-16 00:00:00.0000, -5.473465951488960E+07, -2.664994654934531E+08, -1.181308120513266E+08,
2461428.500000000, A.D. 2027-Jan-23 00:00:00.0000, -4.275659028519154E+07, -2.689655123178921E+08, -1.189231382391051E+08,
2461435.500000000, A.D. 2027-Jan-30 00:00:00.0000, -3.069938659617341E+07, -2.709341301810476E+08, -1.194955142210552E+08,
2461442.500000000, A.D. 2027-Feb-06 00:00:00.0000, -1.858565011952940E+07, -2.724043340457917E+08, -1.198480530824112E+08,
2461449.500000000, A.D. 2027-Feb-13 00:00:00.0000, -6.437830806841755E+06, -2.733758347015042E+08, -1.199811695696328E+08,
2461456.500000000, A.D. 2027-Feb-20 00:00:00.0000, 5.721780355817505E+06, -2.738490216897572E+08, -1.198955728833652E+08,
2461463.500000000, A.D. 2027-Feb-27 00:00:00.0000, 1.787105684084410E+07, -2.738249503208372E+08, -1.195922602785530E+08,
2461470.500000000, A.D. 2027-Mar-06 00:00:00.0000, 2.998804351805667E+07, -2.733053308642234E+08, -1.190725115918767E+08,
2461477.500000000, A.D. 2027-Mar-13 00:00:00.0000, 4.205096360964831E+07, -2.722925178645059E+08, -1.183378843814446E+08,
2461484.500000000, A.D. 2027-Mar-20 00:00:00.0000, 5.403822469316783E+07, -2.707895004111197E+08, -1.173902096384267E+08,
2461491.500000000, A.D. 2027-Mar-27 00:00:00.0000, 6.592842410791540E+07, -2.687998938983394E+08, -1.162315881242189E+08,
2461498.500000000, A.D. 2027-Apr-03 00:00:00.0000, 7.770035411351040E+07, -2.663279333037313E+08, -1.148643873388822E+08,
2461505.500000000, A.D. 2027-Apr-10 00:00:00.0000, 8.933300700433576E+07, -2.633784679323844E+08, -1.132912390994463E+08,
2461512.500000000, A.D. 2027-Apr-17 00:00:00.0000, 1.008055803485095E+08, -2.599569576012005E+08, -1.115150377025788E+08,
2461519.500000000, A.D. 2027-Apr-24 00:00:00.0000, 1.120974825843952E+08, -2.560694702824944E+08, -1.095389386626015E+08,
2461526.500000000, A.D. 2027-May-01 00:00:00.0000, 1.231883394271322E+08, -2.517226811428309E+08, -1.073663580406276E+08,
2461533.500000000, A.D. 2027-May-08 00:00:00.0000, 1.340580015346816E+08, -2.469238721981426E+08, -1.050009723253669E+08,
2461540.500000000, A.D. 2027-May-15 00:00:00.0000, 1.446865520681062E+08, -2.416809315971269E+08, -1.024467186355838E+08,
2461547.500000000, A.D. 2027-May-22 00:00:00.0000, 1.550543127101496E+08, -2.360023550773789E+08, -9.970779528622885E+07,
2461554.500000000, A.D. 2027-May-29 00:00:00.0000, 1.651418516299967E+08, -2.298972510037549E+08, -9.678866311355472E+07,
2461561.500000000, A.D. 2027-Jun-05 00:00:00.0000, 1.749299944165772E+08, -2.233753457945764E+08, -9.369404735184510E+07,
2461568.500000000, A.D. 2027-Jun-12 00:00:00.0000, 1.843998361119259E+08, -2.164469892369017E+08, -9.042893980846930E+07,
2461575.500000000, A.D. 2027-Jun-19 00:00:00.0000, 1.935327541533161E+08, -2.091231605508072E+08, -8.699860134621222E+07,
2461582.500000000, A.D. 2027-Jun-26 00:00:00.0000, 2.023104226450905E+08, -2.014154753803640E+08, -8.340856467960450E+07,
2461589.500000000, A.D. 2027-Jul-03 00:00:00.0000, 2.107148282358402E+08, -1.933361936109365E+08, -7.966463745315649E+07,
2461596.500000000, A.D. 2027-Jul-10 00:00:00.0000, 2.187282877823797E+08, -1.848982279030891E+08, -7.577290555651575E+07,
2461603.500000000, A.D. 2027-Jul-17 00:00:00.0000, 2.263334679801266E+08, -1.761151528695039E+08, -7.173973662953937E+07,
2461610.500000000, A.D. 2027-Jul-24 00:00:00.0000, 2.335134072584732E+08, -1.670012148281570E+08, -6.757178371638042E+07,
2461617.500000000, A.D. 2027-Jul-31 00:00:00.0000, 2.402515405013555E+08, -1.575713417499199E+08, -6.327598902290319E+07,
2461624.500000000, A.D. 2027-Aug-07 00:00:00.0000, 2.465317265488843E+08, -1.478411520966277E+08, -5.885958759841292E+07,
2461631.500000000, A.D. 2027-Aug-14 00:00:00.0000, 2.523382763288924E+08, -1.378269626429581E+08, -5.433011067559372E+07,
2461638.500000000, A.D. 2027-Aug-21 00:00:00.0000, 2.576559823719209E+08, -1.275457984624066E+08, -4.969538891000483E+07,
2461645.500000000, A.D. 2027-Aug-28 00:00:00.0000, 2.624701532681601E+08, -1.170154036633061E+08, -4.496355563302202E+07,
2461652.500000000, A.D. 2027-Sep-04 00:00:00.0000, 2.667666520059963E+08, -1.062542501402145E+08, -4.014304969240616E+07,
2461659.500000000, A.D. 2027-Sep-11 00:00:00.0000, 2.705319369034796E+08, -9.528154474187838E+07, -3.524261768268345E+07,
2461666.500000000, A.D. 2027-Sep-18 00:00:00.0000, 2.737531053586243E+08, -8.411723521083562E+07, -3.027131549948159E+07,
2461673.500000000, A.D. 2027-Sep-25 00:00:00.0000, 2.764179407319758E+08, -7.278201464498551E+07, -2.523850911091524E+07,
2461680.500000000, A.D. 2027-Oct-02 00:00:00.0000, 2.785149625135275E+08, -6.129732410317766E+07, -2.015387441224939E+07,
2461687.500000000, A.D. 2027-Oct-09 00:00:00.0000, 2.800334798575917E+08, -4.968535299221778E+07, -1.502739601709161E+07,
2461694.500000000, A.D. 2027-Oct-16 00:00:00.0000, 2.809636485796343E+08, -3.796903690585377E+07, -9.869364828987326E+06,
2461701.500000000, A.D. 2027-Oct-23 00:00:00.0000, 2.812965318575893E+08, -2.617205251314335E+07, -4.690374232761724E+06,
2461708.500000000, A.D. 2027-Oct-30 00:00:00.0000, 2.810241649373178E+08, -1.431880843823023E+07, 4.986853099018242E+05,
2461715.500000000, A.D. 2027-Nov-06 00:00:00.0000, 2.801396225668041E+08, -2.434430514609153E+06, 5.686633671240799E+06,
2461722.500000000, A.D. 2027-Nov-13 00:00:00.0000, 2.786370870215873E+08, 9.455257012166491E+06, 1.086201070853780E+07,
2461729.500000000, A.D. 2027-Nov-20 00:00:00.0000, 2.765119193877412E+08, 2.132375266669500E+07, 1.601308793862180E+07,
2461736.500000000, A.D. 2027-Nov-27 00:00:00.0000, 2.737607354042438E+08, 3.314390482468019E+07, 2.112788256142111E+07,
2461743.500000000, A.D. 2027-Dec-04 00:00:00.0000, 2.703814834571354E+08, 4.488794617026170E+07, 2.619417432755311E+07,
2461750.500000000, A.D. 2027-Dec-11 00:00:00.0000, 2.663735237084390E+08, 5.652753513120484E+07, 3.119952545665070E+07,
2461757.500000000, A.D. 2027-Dec-18 00:00:00.0000, 2.617377080737795E+08, 6.803380451316452E+07, 3.613130378526451E+07,
2461764.500000000, A.D. 2027-Dec-25 00:00:00.0000, 2.564764605389526E+08, 7.937741787533963E+07, 4.097670935492836E+07,
2461771.500000000, A.D. 2028-Jan-01 00:00:00.0000, 2.505938570889089E+08, 9.052863417489719E+07, 4.572280465020790E+07,
$$EOE